{
  "type": "FeatureCollection",
  "features": [
    {
      "type": "Feature",
      "properties": {
        "norad_id": 40376,
        "name": "SMAP",
        "group": "resource",
        "lat": 58.28224642692975,
        "lon": -9.347082995259317,
        "alt_km": 675.9798775704694,
        "timestamp": "2025-12-25T11:37:44.078891+00:00",
        "meta_object_name": "SMAP",
        "meta_object_id": "2015-003A",
        "meta_epoch": "2025-12-25T03:09:14.421024",
        "meta_mean_motion": 14.63359898,
        "meta_eccentricity": 0.0001234,
        "meta_inclination": 98.1291,
        "meta_ra_of_asc_node": 3.6767,
        "meta_arg_of_pericenter": 92.3549,
        "meta_mean_anomaly": 267.7794,
        "meta_ephemeris_type": 0,
        "meta_classification_type": "U",
        "meta_norad_cat_id": 40376,
        "meta_element_set_no": 999,
        "meta_rev_at_epoch": 58216,
        "meta_bstar": 0.00011514,
        "meta_mean_motion_dot": 5.48e-06,
        "meta_mean_motion_ddot": 0,
        "tle_line1": "1 40376U 15003A   25359.13141691  .00000548  00000+0  11514-3 0  9990",
        "tle_line2": "2 40376  98.1291   3.6767 0001234  92.3549 267.7794 14.63359898582163"
      },
      "geometry": {
        "type": "Point",
        "coordinates": [
          -9.347082995259317,
          58.28224642692975
        ]
      }
    },
    {
      "type": "Feature",
      "properties": {
        "norad_id": 40536,
        "name": "KOMPSAT-3A",
        "group": "resource",
        "lat": -33.07052792864957,
        "lon": 149.4977449041031,
        "alt_km": 440.912438625538,
        "timestamp": "2025-12-25T11:37:44.078901+00:00",
        "meta_object_name": "KOMPSAT-3A",
        "meta_object_id": "2015-014A",
        "meta_epoch": "2025-12-25T04:29:19.031712",
        "meta_mean_motion": 15.44398068,
        "meta_eccentricity": 0.0005625,
        "meta_inclination": 97.6807,
        "meta_ra_of_asc_node": 334.2251,
        "meta_arg_of_pericenter": 100.2619,
        "meta_mean_anomaly": 259.9263,
        "meta_ephemeris_type": 0,
        "meta_classification_type": "U",
        "meta_norad_cat_id": 40536,
        "meta_element_set_no": 999,
        "meta_rev_at_epoch": 59487,
        "meta_bstar": 0.00044401,
        "meta_mean_motion_dot": 0.00020455,
        "meta_mean_motion_ddot": 0,
        "tle_line1": "1 40536U 15014A   25359.18702583  .00020455  00000+0  44401-3 0  9998",
        "tle_line2": "2 40536  97.6807 334.2251 0005625 100.2619 259.9263 15.44398068594871"
      },
      "geometry": {
        "type": "Point",
        "coordinates": [
          149.4977449041031,
          -33.07052792864957
        ]
      }
    },
    {
      "type": "Feature",
      "properties": {
        "norad_id": 40697,
        "name": "SENTINEL-2A",
        "group": "resource",
        "lat": -56.19148475752429,
        "lon": -121.17956567609232,
        "alt_km": 796.6918365619167,
        "timestamp": "2025-12-25T11:37:44.078911+00:00",
        "meta_object_name": "SENTINEL-2A",
        "meta_object_id": "2015-028A",
        "meta_epoch": "2025-12-25T05:29:21.047712",
        "meta_mean_motion": 14.30810366,
        "meta_eccentricity": 0.0001051,
        "meta_inclination": 98.5728,
        "meta_ra_of_asc_node": 71.5864,
        "meta_arg_of_pericenter": 90.5296,
        "meta_mean_anomaly": 269.6007,
        "meta_ephemeris_type": 0,
        "meta_classification_type": "U",
        "meta_norad_cat_id": 40697,
        "meta_element_set_no": 999,
        "meta_rev_at_epoch": 54885,
        "meta_bstar": 5.5127e-05,
        "meta_mean_motion_dot": 1.01e-06,
        "meta_mean_motion_ddot": 0,
        "tle_line1": "1 40697U 15028A   25359.22871583  .00000101  00000+0  55127-4 0  9997",
        "tle_line2": "2 40697  98.5728  71.5864 0001051  90.5296 269.6007 14.30810366548858"
      },
      "geometry": {
        "type": "Point",
        "coordinates": [
          -121.17956567609232,
          -56.19148475752429
        ]
      }
    },
    {
      "type": "Feature",
      "properties": {
        "norad_id": 40701,
        "name": "GAOFEN-8",
        "group": "resource",
        "lat": -8.707342364589236,
        "lon": -2.935718500504189,
        "alt_km": 453.8533731596008,
        "timestamp": "2025-12-25T11:37:44.078921+00:00",
        "meta_object_name": "GAOFEN-8",
        "meta_object_id": "2015-030A",
        "meta_epoch": "2025-12-25T04:34:15.451968",
        "meta_mean_motion": 15.38990286,
        "meta_eccentricity": 0.0011457,
        "meta_inclination": 97.6901,
        "meta_ra_of_asc_node": 177.9416,
        "meta_arg_of_pericenter": 94.9287,
        "meta_mean_anomaly": 265.3266,
        "meta_ephemeris_type": 0,
        "meta_classification_type": "U",
        "meta_norad_cat_id": 40701,
        "meta_element_set_no": 999,
        "meta_rev_at_epoch": 58462,
        "meta_bstar": 0.0007492,
        "meta_mean_motion_dot": 0.0002897,
        "meta_mean_motion_ddot": 0,
        "tle_line1": "1 40701U 15030A   25359.19045662  .00028970  00000+0  74920-3 0  9998",
        "tle_line2": "2 40701  97.6901 177.9416 0011457  94.9287 265.3266 15.38990286584624"
      },
      "geometry": {
        "type": "Point",
        "coordinates": [
          -2.935718500504189,
          -8.707342364589236
        ]
      }
    },
    {
      "type": "Feature",
      "properties": {
        "norad_id": 40718,
        "name": "CARBONITE 1 (CBNT-1)",
        "group": "resource",
        "lat": 73.08482187075951,
        "lon": 153.77392073739324,
        "alt_km": 608.9907539600608,
        "timestamp": "2025-12-25T11:37:44.078931+00:00",
        "meta_object_name": "CARBONITE 1 (CBNT-1)",
        "meta_object_id": "2015-032D",
        "meta_epoch": "2025-12-25T04:48:50.707296",
        "meta_mean_motion": 14.82799582,
        "meta_eccentricity": 0.0015347,
        "meta_inclination": 97.6404,
        "meta_ra_of_asc_node": 179.6961,
        "meta_arg_of_pericenter": 141.1048,
        "meta_mean_anomaly": 219.1273,
        "meta_ephemeris_type": 0,
        "meta_classification_type": "U",
        "meta_norad_cat_id": 40718,
        "meta_element_set_no": 999,
        "meta_rev_at_epoch": 56355,
        "meta_bstar": 0.00025418,
        "meta_mean_motion_dot": 2.009e-05,
        "meta_mean_motion_ddot": 0,
        "tle_line1": "1 40718U 15032D   25359.20058689  .00002009  00000+0  25418-3 0  9996",
        "tle_line2": "2 40718  97.6404 179.6961 0015347 141.1048 219.1273 14.82799582563554"
      },
      "geometry": {
        "type": "Point",
        "coordinates": [
          153.77392073739324,
          73.08482187075951
        ]
      }
    },
    {
      "type": "Feature",
      "properties": {
        "norad_id": 40878,
        "name": "YAOGAN-27",
        "group": "resource",
        "lat": 55.400010583610204,
        "lon": -26.44773172705621,
        "alt_km": 1199.832612564106,
        "timestamp": "2025-12-25T11:37:44.078941+00:00",
        "meta_object_name": "YAOGAN-27",
        "meta_object_id": "2015-040A",
        "meta_epoch": "2025-12-25T04:02:36.040416",
        "meta_mean_motion": 13.16062735,
        "meta_eccentricity": 0.0007552,
        "meta_inclination": 100.102,
        "meta_ra_of_asc_node": 348.2263,
        "meta_arg_of_pericenter": 255.7588,
        "meta_mean_anomaly": 104.2687,
        "meta_ephemeris_type": 0,
        "meta_classification_type": "U",
        "meta_norad_cat_id": 40878,
        "meta_element_set_no": 999,
        "meta_rev_at_epoch": 49477,
        "meta_bstar": 0.0010373,
        "meta_mean_motion_dot": 3.52e-06,
        "meta_mean_motion_ddot": 0,
        "tle_line1": "1 40878U 15040A   25359.16847269  .00000352  00000+0  10373-2 0  9999",
        "tle_line2": "2 40878 100.1020 348.2263 0007552 255.7588 104.2687 13.16062735494773"
      },
      "geometry": {
        "type": "Point",
        "coordinates": [
          -26.44773172705621,
          55.400010583610204
        ]
      }
    },
    {
      "type": "Feature",
      "properties": {
        "norad_id": 40894,
        "name": "GAOFEN-9 01",
        "group": "resource",
        "lat": -19.489517822808615,
        "lon": 40.616263510385785,
        "alt_km": 608.0641845670625,
        "timestamp": "2025-12-25T11:37:44.078951+00:00",
        "meta_object_name": "GAOFEN-9 01",
        "meta_object_id": "2015-047A",
        "meta_epoch": "2025-12-25T05:14:14.098272",
        "meta_mean_motion": 14.82451932,
        "meta_eccentricity": 0.0027375,
        "meta_inclination": 97.6527,
        "meta_ra_of_asc_node": 37.634,
        "meta_arg_of_pericenter": 353.8995,
        "meta_mean_anomaly": 6.1882,
        "meta_ephemeris_type": 0,
        "meta_classification_type": "U",
        "meta_norad_cat_id": 40894,
        "meta_element_set_no": 999,
        "meta_rev_at_epoch": 55441,
        "meta_bstar": 0.00014751,
        "meta_mean_motion_dot": 1.139e-05,
        "meta_mean_motion_ddot": 0,
        "tle_line1": "1 40894U 15047A   25359.21821873  .00001139  00000+0  14751-3 0  9992",
        "tle_line2": "2 40894  97.6527  37.6340 0027375 353.8995   6.1882 14.82451932554415"
      },
      "geometry": {
        "type": "Point",
        "coordinates": [
          40.616263510385785,
          -19.489517822808615
        ]
      }
    }
  ]
}